ONEWEB-0620             
1 55161U 23004X   25297.76267194 -.00000193  00000+0 -57960-3 0  9998
2 55161  87.8826  67.9699 0001787  95.4547 264.6785 13.11416287134978
ONEWEB-0621             
1 55162U 23004Y   25297.78980311 -.00000294  00000+0 -86653-3 0  9997
2 55162  87.8844  67.9296 0001394  93.6272 266.5015 13.11417557134957
ONEWEB-0622             
1 55163U 23004Z   25297.79490071 -.00000108  00000+0 -34065-3 0  9992
2 55163  87.8831  67.9430 0001815  72.4135 287.7191 13.11419283134942
ONEWEB-0623             
1 55164U 23004AA  25297.76791581  .00000012  00000+0 -17646-5 0  9991
2 55164  87.9113  52.7009 0001392  73.2041 286.9243 13.17650326136588
ONEWEB-0624             
1 55165U 23004AB  25297.78447698 -.00000113  00000+0 -34637-3 0  9991
2 55165  87.8962  37.3975 0001552  93.3642 266.7664 13.12917317137180
ONEWEB-0625             
1 55166U 23004AC  25297.75777285 -.00000033  00000+0 -11719-3 0  9994
2 55166  87.9110  52.6987 0001730 105.2647 254.8676 13.17648266136578
ONEWEB-0626             
1 55167U 23004AD  25297.74766383  .00000040  00000+0  69998-4 0  9990
2 55167  87.9114  52.7005 0002259 102.0707 258.0678 13.17649209136570
ONEWEB-0627             
1 55168U 23004AE  25297.73584963  .00000042  00000+0  75501-4 0  9991
2 55168  87.9110  52.7029 0001551  79.9161 280.2145 13.17650157136573
